[{"OBJECT_NAME":"OBJECT AS","OBJECT_ID":"2023-085AS","EPOCH":"2026-03-09T22:43:55.521696","MEAN_MOTION":15.33336233,"ECCENTRICITY":0.00083243,"INCLINATION":97.4812,"RA_OF_ASC_NODE":180.8852,"ARG_OF_PERICENTER":80.6036,"MEAN_ANOMALY":279.6147,"EPHEMERIS_TYPE":0,"CLASSIFICATION_TYPE":"U","NORAD_CAT_ID":57044,"ELEMENT_SET_NO":999,"REV_AT_EPOCH":15162,"BSTAR":0.00067677795,"MEAN_MOTION_DOT":0.00021782,"MEAN_MOTION_DDOT":0},{"OBJECT_NAME":"STARLINK-32077","OBJECT_ID":"2024-136R","EPOCH":"2026-03-09T09:52:37.501824","MEAN_MOTION":15.30189785,"ECCENTRICITY":0.00014224,"INCLINATION":53.1613,"RA_OF_ASC_NODE":76.8348,"ARG_OF_PERICENTER":76.8529,"MEAN_ANOMALY":283.2631,"EPHEMERIS_TYPE":0,"CLASSIFICATION_TYPE":"U","NORAD_CAT_ID":60344,"ELEMENT_SET_NO":999,"REV_AT_EPOCH":8962,"BSTAR":1.6243841e-5,"MEAN_MOTION_DOT":1.22e-6,"MEAN_MOTION_DDOT":0}]
